[{"OBJECT_NAME":"ONEWEB-0531","OBJECT_ID":"2022-138AK","EPOCH":"2026-03-04T03:47:15.789696","MEAN_MOTION":13.20772973,"ECCENTRICITY":0.0002324,"INCLINATION":87.9181,"RA_OF_ASC_NODE":295.4059,"ARG_OF_PERICENTER":68.0236,"MEAN_ANOMALY":292.1145,"EPHEMERIS_TYPE":0,"CLASSIFICATION_TYPE":"U","NORAD_CAT_ID":54146,"ELEMENT_SET_NO":999,"REV_AT_EPOCH":16544,"BSTAR":0.00027117,"MEAN_MOTION_DOT":1.23e-6,"MEAN_MOTION_DDOT":0},{"OBJECT_NAME":"ONEWEB-0535","OBJECT_ID":"2022-138AL","EPOCH":"2026-03-04T05:23:31.606368","MEAN_MOTION":13.19726737,"ECCENTRICITY":0.0001757,"INCLINATION":87.9247,"RA_OF_ASC_NODE":325.8615,"ARG_OF_PERICENTER":68.0341,"MEAN_ANOMALY":292.0978,"EPHEMERIS_TYPE":0,"CLASSIFICATION_TYPE":"U","NORAD_CAT_ID":54147,"ELEMENT_SET_NO":999,"REV_AT_EPOCH":16299,"BSTAR":0.00020581,"MEAN_MOTION_DOT":9.5e-7,"MEAN_MOTION_DDOT":0},{"OBJECT_NAME":"ONEWEB-0536","OBJECT_ID":"2022-138AM","EPOCH":"2026-03-04T03:29:05.035488","MEAN_MOTION":13.20773277,"ECCENTRICITY":0.0002476,"INCLINATION":87.917,"RA_OF_ASC_NODE":295.4441,"ARG_OF_PERICENTER":69.0614,"MEAN_ANOMALY":291.0784,"EPHEMERIS_TYPE":0,"CLASSIFICATION_TYPE":"U","NORAD_CAT_ID":54148,"ELEMENT_SET_NO":999,"REV_AT_EPOCH":16543,"BSTAR":0.00019492,"MEAN_MOTION_DOT":9.2e-7,"MEAN_MOTION_DDOT":0},{"OBJECT_NAME":"ONEWEB-0527","OBJECT_ID":"2022-166A","EPOCH":"2026-03-04T11:34:57.571392","MEAN_MOTION":13.2182541,"ECCENTRICITY":0.0001672,"INCLINATION":87.9162,"RA_OF_ASC_NODE":264.8783,"ARG_OF_PERICENTER":91.9073,"MEAN_ANOMALY":268.2252,"EPHEMERIS_TYPE":0,"CLASSIFICATION_TYPE":"U","NORAD_CAT_ID":54642,"ELEMENT_SET_NO":999,"REV_AT_EPOCH":15770,"BSTAR":-5.2162e-5,"MEAN_MOTION_DOT":-9.0e-8,"MEAN_MOTION_DDOT":0},{"OBJECT_NAME":"ONEWEB-0528","OBJECT_ID":"2022-166B","EPOCH":"2026-03-04T11:44:25.565856","MEAN_MOTION":13.21826606,"ECCENTRICITY":0.000163,"INCLINATION":87.9164,"RA_OF_ASC_NODE":264.8806,"ARG_OF_PERICENTER":93.2774,"MEAN_ANOMALY":266.8546,"EPHEMERIS_TYPE":0,"CLASSIFICATION_TYPE":"U","NORAD_CAT_ID":54643,"ELEMENT_SET_NO":999,"REV_AT_EPOCH":15771,"BSTAR":1.0003e-5,"MEAN_MOTION_DOT":1.7e-7,"MEAN_MOTION_DDOT":0},{"OBJECT_NAME":"ONEWEB-0539","OBJECT_ID":"2022-166C","EPOCH":"2026-03-04T12:38:56.230080","MEAN_MOTION":13.21825556,"ECCENTRICITY":0.0001405,"INCLINATION":87.9168,"RA_OF_ASC_NODE":264.8389,"ARG_OF_PERICENTER":93.5186,"MEAN_ANOMALY":266.6109,"EPHEMERIS_TYPE":0,"CLASSIFICATION_TYPE":"U","NORAD_CAT_ID":54644,"ELEMENT_SET_NO":999,"REV_AT_EPOCH":15771,"BSTAR":-0.0001586,"MEAN_MOTION_DOT":-5.2e-7,"MEAN_MOTION_DDOT":0},{"OBJECT_NAME":"ONEWEB-0540","OBJECT_ID":"2022-166D","EPOCH":"2026-03-04T12:48:35.606880","MEAN_MOTION":13.21826964,"ECCENTRICITY":0.0001475,"INCLINATION":87.9165,"RA_OF_ASC_NODE":264.874,"ARG_OF_PERICENTER":88.0648,"MEAN_ANOMALY":272.0655,"EPHEMERIS_TYPE":0,"CLASSIFICATION_TYPE":"U","NORAD_CAT_ID":54645,"ELEMENT_SET_NO":999,"REV_AT_EPOCH":15770,"BSTAR":-7.114e-5,"MEAN_MOTION_DOT":-1.6e-7,"MEAN_MOTION_DDOT":0},{"OBJECT_NAME":"ONEWEB-0542","OBJECT_ID":"2022-166E","EPOCH":"2026-03-04T00:10:06.531456","MEAN_MOTION":13.21828984,"ECCENTRICITY":0.0001231,"INCLINATION":87.9173,"RA_OF_ASC_NODE":264.9385,"ARG_OF_PERICENTER":86.2244,"MEAN_ANOMALY":273.9031,"EPHEMERIS_TYPE":0,"CLASSIFICATION_TYPE":"U","NORAD_CAT_ID":54646,"ELEMENT_SET_NO":999,"REV_AT_EPOCH":15764,"BSTAR":-1.2932e-5,"MEAN_MOTION_DOT":8.0e-8,"MEAN_MOTION_DDOT":0},{"OBJECT_NAME":"ONEWEB-0545","OBJECT_ID":"2022-166F","EPOCH":"2026-03-04T12:03:23.350176","MEAN_MOTION":13.21825745,"ECCENTRICITY":0.0001142,"INCLINATION":87.9164,"RA_OF_ASC_NODE":264.8603,"ARG_OF_PERICENTER":80.505,"MEAN_ANOMALY":279.6213,"EPHEMERIS_TYPE":0,"CLASSIFICATION_TYPE":"U","NORAD_CAT_ID":54647,"ELEMENT_SET_NO":999,"REV_AT_EPOCH":15767,"BSTAR":9.7089e-5,"MEAN_MOTION_DOT":5.3e-7,"MEAN_MOTION_DDOT":0},{"OBJECT_NAME":"ONEWEB-0580","OBJECT_ID":"2022-166G","EPOCH":"2026-03-04T11:25:28.832160","MEAN_MOTION":13.21826034,"ECCENTRICITY":0.000134,"INCLINATION":87.9166,"RA_OF_ASC_NODE":264.8647,"ARG_OF_PERICENTER":79.1674,"MEAN_ANOMALY":280.9611,"EPHEMERIS_TYPE":0,"CLASSIFICATION_TYPE":"U","NORAD_CAT_ID":54648,"ELEMENT_SET_NO":999,"REV_AT_EPOCH":15771,"BSTAR":-4.3879e-5,"MEAN_MOTION_DOT":-5.0e-8,"MEAN_MOTION_DDOT":0},{"OBJECT_NAME":"ONEWEB-0582","OBJECT_ID":"2022-166H","EPOCH":"2026-03-04T01:33:04.279104","MEAN_MOTION":13.21825927,"ECCENTRICITY":0.0001194,"INCLINATION":87.9167,"RA_OF_ASC_NODE":264.9404,"ARG_OF_PERICENTER":80.4733,"MEAN_ANOMALY":279.6536,"EPHEMERIS_TYPE":0,"CLASSIFICATION_TYPE":"U","NORAD_CAT_ID":54649,"ELEMENT_SET_NO":999,"REV_AT_EPOCH":15763,"BSTAR":-0.00013054,"MEAN_MOTION_DOT":-4.1e-7,"MEAN_MOTION_DDOT":0},{"OBJECT_NAME":"ONEWEB-0583","OBJECT_ID":"2022-166J","EPOCH":"2026-03-04T00:00:38.700288","MEAN_MOTION":13.21826049,"ECCENTRICITY":0.0001478,"INCLINATION":87.9165,"RA_OF_ASC_NODE":264.9766,"ARG_OF_PERICENTER":92.1744,"MEAN_ANOMALY":267.9559,"EPHEMERIS_TYPE":0,"CLASSIFICATION_TYPE":"U","NORAD_CAT_ID":54650,"ELEMENT_SET_NO":999,"REV_AT_EPOCH":15763,"BSTAR":5.3701e-5,"MEAN_MOTION_DOT":3.5e-7,"MEAN_MOTION_DDOT":0},{"OBJECT_NAME":"ONEWEB-0584","OBJECT_ID":"2022-166K","EPOCH":"2026-03-04T02:18:05.780736","MEAN_MOTION":13.21826024,"ECCENTRICITY":0.0001359,"INCLINATION":87.9165,"RA_OF_ASC_NODE":264.9444,"ARG_OF_PERICENTER":76.9478,"MEAN_ANOMALY":283.1807,"EPHEMERIS_TYPE":0,"CLASSIFICATION_TYPE":"U","NORAD_CAT_ID":54651,"ELEMENT_SET_NO":999,"REV_AT_EPOCH":15763,"BSTAR":3.0095e-5,"MEAN_MOTION_DOT":2.5e-7,"MEAN_MOTION_DDOT":0},{"OBJECT_NAME":"ONEWEB-0585","OBJECT_ID":"2022-166L","EPOCH":"2026-03-04T11:58:37.748064","MEAN_MOTION":13.2182376,"ECCENTRICITY":0.0001755,"INCLINATION":87.9167,"RA_OF_ASC_NODE":264.8485,"ARG_OF_PERICENTER":91.6843,"MEAN_ANOMALY":268.4492,"EPHEMERIS_TYPE":0,"CLASSIFICATION_TYPE":"U","NORAD_CAT_ID":54652,"ELEMENT_SET_NO":999,"REV_AT_EPOCH":15769,"BSTAR":9.4547e-5,"MEAN_MOTION_DOT":5.2e-7,"MEAN_MOTION_DDOT":0},{"OBJECT_NAME":"ONEWEB-0586","OBJECT_ID":"2022-166M","EPOCH":"2026-03-04T01:23:35.595168","MEAN_MOTION":13.21824785,"ECCENTRICITY":0.0001397,"INCLINATION":87.9167,"RA_OF_ASC_NODE":264.9622,"ARG_OF_PERICENTER":90.3762,"MEAN_ANOMALY":269.7532,"EPHEMERIS_TYPE":0,"CLASSIFICATION_TYPE":"U","NORAD_CAT_ID":54653,"ELEMENT_SET_NO":999,"REV_AT_EPOCH":15763,"BSTAR":0.0001516,"MEAN_MOTION_DOT":7.6e-7,"MEAN_MOTION_DDOT":0},{"OBJECT_NAME":"ONEWEB-0587","OBJECT_ID":"2022-166N","EPOCH":"2026-03-04T12:31:48.485280","MEAN_MOTION":13.2182772,"ECCENTRICITY":0.0001949,"INCLINATION":87.9175,"RA_OF_ASC_NODE":264.8329,"ARG_OF_PERICENTER":95.2329,"MEAN_ANOMALY":264.9027,"EPHEMERIS_TYPE":0,"CLASSIFICATION_TYPE":"U","NORAD_CAT_ID":54654,"ELEMENT_SET_NO":999,"REV_AT_EPOCH":15785,"BSTAR":2.0401e-5,"MEAN_MOTION_DOT":2.1e-7,"MEAN_MOTION_DDOT":0},{"OBJECT_NAME":"ONEWEB-0589","OBJECT_ID":"2022-166P","EPOCH":"2026-03-04T12:12:50.609376","MEAN_MOTION":13.21826235,"ECCENTRICITY":0.0001052,"INCLINATION":87.9162,"RA_OF_ASC_NODE":264.8612,"ARG_OF_PERICENTER":60.6655,"MEAN_ANOMALY":299.4584,"EPHEMERIS_TYPE":0,"CLASSIFICATION_TYPE":"U","NORAD_CAT_ID":54655,"ELEMENT_SET_NO":999,"REV_AT_EPOCH":15771,"BSTAR":0.00018484,"MEAN_MOTION_DOT":8.9e-7,"MEAN_MOTION_DDOT":0},{"OBJECT_NAME":"ONEWEB-0590","OBJECT_ID":"2022-166Q","EPOCH":"2026-03-04T12:48:12.332448","MEAN_MOTION":13.21826524,"ECCENTRICITY":0.0001861,"INCLINATION":87.9173,"RA_OF_ASC_NODE":264.8359,"ARG_OF_PERICENTER":76.7751,"MEAN_ANOMALY":283.3591,"EPHEMERIS_TYPE":0,"CLASSIFICATION_TYPE":"U","NORAD_CAT_ID":54656,"ELEMENT_SET_NO":999,"REV_AT_EPOCH":15770,"BSTAR":-9.0614e-5,"MEAN_MOTION_DOT":-2.4e-7,"MEAN_MOTION_DDOT":0},{"OBJECT_NAME":"ONEWEB-0591","OBJECT_ID":"2022-166R","EPOCH":"2026-03-04T11:15:58.753728","MEAN_MOTION":13.21823894,"ECCENTRICITY":0.0001626,"INCLINATION":87.9166,"RA_OF_ASC_NODE":264.8706,"ARG_OF_PERICENTER":87.9636,"MEAN_ANOMALY":272.1684,"EPHEMERIS_TYPE":0,"CLASSIFICATION_TYPE":"U","NORAD_CAT_ID":54657,"ELEMENT_SET_NO":999,"REV_AT_EPOCH":15772,"BSTAR":-7.8236e-5,"MEAN_MOTION_DOT":-1.9e-7,"MEAN_MOTION_DDOT":0},{"OBJECT_NAME":"ONEWEB-0592","OBJECT_ID":"2022-166S","EPOCH":"2026-03-04T11:20:43.636992","MEAN_MOTION":13.21827694,"ECCENTRICITY":0.0001567,"INCLINATION":87.9174,"RA_OF_ASC_NODE":264.8398,"ARG_OF_PERICENTER":86.679,"MEAN_ANOMALY":273.4523,"EPHEMERIS_TYPE":0,"CLASSIFICATION_TYPE":"U","NORAD_CAT_ID":54658,"ELEMENT_SET_NO":999,"REV_AT_EPOCH":15760,"BSTAR":-4.5418e-5,"MEAN_MOTION_DOT":-6.0e-8,"MEAN_MOTION_DDOT":0},{"OBJECT_NAME":"ONEWEB-0593","OBJECT_ID":"2022-166T","EPOCH":"2026-03-04T11:53:54.502080","MEAN_MOTION":13.21826449,"ECCENTRICITY":0.0001468,"INCLINATION":87.9168,"RA_OF_ASC_NODE":264.8551,"ARG_OF_PERICENTER":93.6796,"MEAN_ANOMALY":266.4506,"EPHEMERIS_TYPE":0,"CLASSIFICATION_TYPE":"U","NORAD_CAT_ID":54659,"ELEMENT_SET_NO":999,"REV_AT_EPOCH":15771,"BSTAR":0.00010522,"MEAN_MOTION_DOT":5.6e-7,"MEAN_MOTION_DDOT":0},{"OBJECT_NAME":"ONEWEB-0594","OBJECT_ID":"2022-166U","EPOCH":"2026-03-04T12:22:19.187904","MEAN_MOTION":13.2182782,"ECCENTRICITY":0.0001671,"INCLINATION":87.9165,"RA_OF_ASC_NODE":264.8693,"ARG_OF_PERICENTER":93.9702,"MEAN_ANOMALY":266.1623,"EPHEMERIS_TYPE":0,"CLASSIFICATION_TYPE":"U","NORAD_CAT_ID":54660,"ELEMENT_SET_NO":999,"REV_AT_EPOCH":15773,"BSTAR":7.7343e-5,"MEAN_MOTION_DOT":4.5e-7,"MEAN_MOTION_DDOT":0},{"OBJECT_NAME":"ONEWEB-0595","OBJECT_ID":"2022-166V","EPOCH":"2026-03-04T11:49:09.331104","MEAN_MOTION":13.21827255,"ECCENTRICITY":0.0001789,"INCLINATION":87.917,"RA_OF_ASC_NODE":264.8458,"ARG_OF_PERICENTER":91.6042,"MEAN_ANOMALY":268.5297,"EPHEMERIS_TYPE":0,"CLASSIFICATION_TYPE":"U","NORAD_CAT_ID":54661,"ELEMENT_SET_NO":999,"REV_AT_EPOCH":15770,"BSTAR":0.00010247,"MEAN_MOTION_DOT":5.5e-7,"MEAN_MOTION_DDOT":0},{"OBJECT_NAME":"ONEWEB-0596","OBJECT_ID":"2022-166W","EPOCH":"2026-03-04T02:06:12.917664","MEAN_MOTION":13.21827525,"ECCENTRICITY":0.0001668,"INCLINATION":87.9167,"RA_OF_ASC_NODE":264.9446,"ARG_OF_PERICENTER":91.0942,"MEAN_ANOMALY":269.0383,"EPHEMERIS_TYPE":0,"CLASSIFICATION_TYPE":"U","NORAD_CAT_ID":54662,"ELEMENT_SET_NO":999,"REV_AT_EPOCH":15765,"BSTAR":2.4658e-5,"MEAN_MOTION_DOT":2.3e-7,"MEAN_MOTION_DDOT":0}]
